STARLINK-4203           
1 53021U 22076AM  22205.91667824 -.00067225  00000+0 -47799-3 0  9994
2 53021  53.2191 293.5958 0001934  27.9468 322.0928 15.73217662  1308
STARLINK-4216           
1 53022U 22076AN  22206.58334491  .00055888  00000+0  40002-3 0  9990
2 53022  53.2190 290.3016 0002134  31.7870 134.2163 15.73196458  3339
STARLINK-4284           
1 53023U 22076AP  22206.58334491  .00038959  00000+0  28111-3 0  9998
2 53023  53.2191 290.2965 0002117  36.4457 132.6197 15.73166223  3333
STARLINK-4289           
1 53024U 22076AQ  22206.16668981  .00077961  00000+0  55688-3 0  9992
2 53024  53.2189 292.3558 0001645  46.9799 280.4761 15.73109884  3274
STARLINK-4218           
1 53025U 22076AR  22205.91667824  .00004870  00000+0  39099-4 0  9998
2 53025  53.2188 293.5903 0001471  31.6817 320.7316 15.73197705  3239
STARLINK-4119           
1 53026U 22076AS  22206.58334491  .00043437  00000+0  31294-3 0  9994
2 53026  53.2188 290.2985 0002006  25.4807 141.7671 15.73151840  3335
STARLINK-4158           
1 53027U 22076AT  22206.58334491  .00043073  00000+0  30996-3 0  9999
2 53027  53.2189 290.2908 0001723  39.1353 132.8261 15.73182991  3332
STARLINK-4161           
1 53028U 22076AU  22206.58334491  .00023287  00000+0  16985-3 0  9997
2 53028  53.2189 290.2942 0001859  43.5853 126.0509 15.73203704  3331
STARLINK-4143           
1 53029U 22076AV  22206.58334491  .00041873  00000+0  30190-3 0  9993
2 53029  53.2190 290.2901 0002211  35.5078 137.1106 15.73150570  3330
STARLINK-4160           
1 53030U 22076AW  22206.58334491  .00043124  00000+0  31056-3 0  9998
2 53030  53.2187 290.2912 0001870  46.0458 124.7914 15.73164868  3333
STARLINK-4137           
1 53031U 22076AX  22205.91667824  .00006056  00000+0  47632-4 0  9995
2 53031  53.2190 293.5833 0001562  37.1204 319.5146 15.73151237  3230
STARLINK-4115           
1 53032U 22076AY  22206.58334491  .00043071  00000+0  31042-3 0  9996
2 53032  53.2181 290.2890 0002223  33.5749 137.8574 15.73146123  3332
STARLINK-4167           
1 53033U 22076AZ  22206.58334491  .00040771  00000+0  29356-3 0  9996
2 53033  53.2191 290.2879 0001957  43.1746 130.5970 15.73194789  3339
STARLINK-4151           
1 53034U 22076BA  22205.91667824  .00005383  00000+0  42799-4 0  9999
2 53034  53.2193 293.5862 0001745  18.6120 336.7817 15.73173849  1307
STARLINK-4157           
1 53035U 22076BB  22205.91667824 -.00008365  00000+0 -55279-4 0  9992
2 53035  53.2191 293.5830 0001964  32.8568 324.3242 15.73179708  1303
STARLINK-4155           
1 53036U 22076BC  22205.91667824 -.00067418  00000+0 -47946-3 0  9998
2 53036  53.2187 293.5796 0001702  40.5611 317.1690 15.73214797  3223
STARLINK-4153           
1 53037U 22076BD  22205.91667824 -.00018654  00000+0 -12887-3 0  9993
2 53037  53.2190 293.5795 0001592  37.5637 320.7780 15.73184341  1306
STARLINK-4156           
1 53038U 22076BE  22205.91667824 -.00076794  00000+0 -54775-3 0  9995
2 53038  53.2187 293.5769 0001773  33.8034 325.1997 15.73198166  1304
FALCON 9 DEB            
1 53039U 22076BF  22205.64832372  .03498274  12081-4  68153-3 0  9992
2 53039  53.2159 291.7608 0023321  96.0790 264.2913 16.30039390  2768
FALCON 9 DEB            
1 53040U 22076BG  22205.70598259  .02972051  12067-4  61794-3 0  9991
2 53040  53.2032 291.3881 0023570  95.3566 265.0168 16.29359233  2779
FALCON 9 DEB            
1 53041U 22076BH  22206.12148941  .04036484  12214-4  51947-3 0  9994
2 53041  53.2161 288.9920 0017044  86.1583 274.1411 16.34496737  2842
FALCON 9 DEB            
1 53042U 22076BJ  22205.61508775  .09460548  12514-4  25834-3 0  9999
2 53042  53.2165 291.5085 0008891  77.6583 282.5463 16.44911172  2761
STARLINK-4362           
1 53043U 22077A   22206.58334491 -.01168926  00000+0 -10802-1 0  9998
2 53043  97.6547  25.4835 0001542  97.0841 168.7302 15.70394808  1589
STARLINK-4349           
1 53044U 22077B   22206.16668981 -.01380871  00000+0 -14421-1 0  9993
2 53044  97.6557  25.0288 0001790  67.6992   0.0405 15.67445120  2802
STARLINK-4350           
1 53045U 22077C   22206.16668981 -.01381005  00000+0 -14418-1 0  9990
2 53045  97.6557  25.0291 0001723  76.6775 351.6862 15.67453636  2805
STARLINK-4331           
1 53046U 22077D   22206.16668981 -.01380349  00000+0 -14406-1 0  9998
2 53046  97.6556  25.0289 0001683  80.5053 348.4827 15.67461355  2802
STARLINK-4352           
1 53047U 22077E   22206.16668981 -.01382746  00000+0 -14423-1 0  9991
2 53047  97.6557  25.0295 0001737  76.4700 353.7649 15.67479783  2809
STARLINK-4355           
1 53048U 22077F   22205.91667824 -.01377085  00000+0 -13928-1 0  9998
2 53048  97.6555  24.7547 0001784  69.5102  29.9210 15.68219234  1309
STARLINK-4345           
1 53049U 22077G   22206.25001157 -.01377373  00000+0 -14493-1 0  9996
2 53049  97.6555  25.1207 0001967  71.7236 110.2167 15.67250912  2239
STARLINK-4343           
1 53050U 22077H   22205.91667824 -.01377124  00000+0 -13919-1 0  9995
2 53050  97.6555  24.7549 0001784  69.8461  30.8180 15.68235734  1305
STARLINK-4336           
1 53051U 22077J   22205.91667824 -.01376996  00000+0 -13898-1 0  9998
2 53051  97.6555  24.7556 0001905  59.0748  44.0542 15.68268601  1306
STARLINK-4341           
1 53052U 22077K   22205.91667824 -.01377101  00000+0 -13914-1 0  9997
2 53052  97.6555  24.7550 0001788  69.5208  31.7596 15.68243983  1305
STARLINK-4337           
1 53053U 22077L   22205.91667824 -.01376969  00000+0 -13888-1 0  9999
2 53053  97.6555  24.7560 0001955  55.8218  48.5391 15.68285014  1302
STARLINK-4339           
1 53054U 22077M   22205.91667824 -.01377143  00000+0 -13905-1 0  9995
2 53054  97.6555  24.7553 0001796  68.8920  33.6208 15.68260471  1304
STARLINK-4338           
1 53055U 22077N   22205.91667824 -.01377051  00000+0 -13880-1 0  9996
2 53055  97.6555  24.7562 0001868  62.4842  43.1083 15.68301629  1306
STARLINK-4314           
1 53056U 22077P   22205.91667824 -.01377053  00000+0 -13894-1 0  9994
2 53056  97.6555  24.7558 0001894  59.9753  43.7697 15.68276854  1301
STARLINK-4252           
1 53057U 22077Q   22205.91667824 -.01377072  00000+0 -13871-1 0  9991
2 53057  97.6555  24.7566 0001838  65.4328  41.3910 15.68318157  1304
STARLINK-4317           
1 53058U 22077R   22205.91667824 -.01376741  00000+0 -13880-1 0  9994
2 53058  97.6555  24.7559 0002081  48.9632  56.0136 15.68293071  1302
STARLINK-4320           
1 53059U 22077S   22206.16668981 -.01381413  00000+0 -14345-1 0  9997
2 53059  97.6556  25.0309 0001756  72.6263   5.7126 15.67585731  2805
STARLINK-4305           
1 53060U 22077T   22205.91667824 -.01376898  00000+0 -13873-1 0  9992
2 53060  97.6555  24.7564 0001971  55.1298  51.0784 15.68309715  1303
STARLINK-4308           
1 53061U 22077U   22205.91667824 -.01377211  00000+0 -13854-1 0  9992
2 53061  97.6555  24.7572 0001796  70.7235  38.5617 15.68351202  1305
STARLINK-4311           
1 53062U 22077V   22205.91667824 -.01376993  00000+0 -13865-1 0  9991
2 53062  97.6555  24.7565 0001911  59.3385  48.1008 15.68326296  1302
STARLINK-4307           
1 53063U 22077W   22205.91667824 -.01376812  00000+0 -13839-1 0  9993
2 53063  97.6555  24.7574 0001998  54.0609  56.4548 15.68367368  1305
STARLINK-4313           
1 53064U 22077X   22205.91667824 -.01376945  00000+0 -13855-1 0  9999
2 53064  97.6555  24.7568 0001921  58.8420  49.8281 15.68342771  1309
STARLINK-4312           
1 53065U 22077Y   22205.91667824 -.01377191  00000+0 -13840-1 0  9998
2 53065  97.6555  24.7575 0001741  80.9159  30.2146 15.68375997  1303
STARLINK-4309           
1 53066U 22077Z   22205.91667824 -.01377172  00000+0 -13849-1 0  9997
2 53066  97.6555  24.7571 0001772  74.2984  35.6020 15.68359478  1302
STARLINK-4306           
1 53067U 22077AA  22205.91667824 -.01376790  00000+0 -13820-1 0  9992
2 53067  97.6555  24.7580 0001996  54.5469  58.4284 15.68400338  1307
STARLINK-4325           
1 53068U 22077AB  22205.91667824 -.01377188  00000+0 -13835-1 0  9991
2 53068  97.6555  24.7575 0001786  72.8818  38.8637 15.68384217  1301
STARLINK-4323           
1 53069U 22077AC  22205.91667824 -.01377248  00000+0 -13817-1 0  9999
2 53069  97.6555  24.7582 0001770  76.3339  37.8705 15.68417241  1309
STARLINK-4342           
1 53070U 22077AD  22205.91667824 -.01377035  00000+0 -13828-1 0  9997
2 53070  97.6555  24.7577 0001896  61.3943  50.9661 15.68392276  1306
STARLINK-4328           
1 53071U 22077AE  22205.91667824 -.01377211  00000+0 -13807-1 0  9991
2 53071  97.6555  24.7586 0001807  71.1307  44.3028 15.68433678  1308
STARLINK-4344           
1 53072U 22077AF  22206.16668981 -.01382468  00000+0 -14313-1 0  9998
2 53072  97.6556  25.0318 0001813  71.2331  12.7071 15.67660796  2807
STARLINK-4346           
1 53073U 22077AG  22205.91667824 -.01377240  00000+0 -13798-1 0  9994
2 53073  97.6555  24.7588 0001799  72.6323  44.0298 15.68450196  1306
STARLINK-4310           
1 53074U 22077AH  22206.16668981 -.01381763  00000+0 -14296-1 0  9997
2 53074  97.6556  25.0319 0001724  81.0430   4.1415 15.67676797  2805
STARLINK-4348           
1 53075U 22077AJ  22205.91667824 -.01377349  00000+0 -13790-1 0  9998
2 53075  97.6555  24.7590 0001771  77.7111  40.1793 15.68466751  1303
STARLINK-4347           
1 53076U 22077AK  22206.16668981 -.01382230  00000+0 -14291-1 0  9994
2 53076  97.6556  25.0323 0001819  70.1964  16.2316 15.67693603  2807
STARLINK-4315           
1 53077U 22077AL  22205.91667824 -.01377220  00000+0 -13779-1 0  9995
2 53077  97.6555  24.7594 0001808  71.9992  47.1193 15.68483175  1303
STARLINK-4322           
1 53078U 22077AM  22206.16668981 -.01382287  00000+0 -14282-1 0  9998
2 53078  97.6556  25.0324 0001829  68.6666  19.0047 15.67710045  2804
STARLINK-4327           
1 53079U 22077AN  22206.16668981 -.01382301  00000+0 -14263-1 0  9995
2 53079  97.6555  25.0331 0001807  72.9511  17.2058 15.67743115  2801
